NORAD_CAT_ID,OBJECT_NAME,OBJECT_TYPE,EPOCH,MEAN_MOTION,ECCENTRICITY,INCLINATION,RA_OF_ASC_NODE,ARG_OF_PERICENTER,MEAN_ANOMALY,BSTAR,MEAN_MOTION_DOT,MEAN_MOTION_DDOT,TLE_LINE0,TLE_LINE1,TLE_LINE2,SEMIMAJOR_AXIS,PERIOD,APOGEE,PERIGEE,DECAYED
51803.0,STARLINK-3544,PAYLOAD,2022-08-27 22:00:00,15.08832671,0.0001595,53.2164,19.1329,58.0,312.9777,0.00094951,0.00014853,0.0,0 STARLINK-3544,1 51803U 22017AM  22239.91667824  .00014853  00000-0  94951-3 0  9992,2 51803  53.2164  19.1329 0001595  58.0000 312.9777 15.08832671  1309,6917.903,95.438,540.871,538.664,0.0
51803.0,STARLINK-3544,PAYLOAD,2022-08-28 12:00:00,15.08864651,0.0001559,53.2169,16.5132,65.4815,235.7875,-0.0012554999999999,-0.00020227,0.0,0 STARLINK-3544,1 51803U 22017AM  22240.50001157 -.00020227  00000-0 -12555-2 0  9993,2 51803  53.2169  16.5132 0001559  65.4815 235.7875 15.08864651 29284,6917.805,95.436,540.749,538.592,0.0
51803.0,STARLINK-3544,PAYLOAD,2022-08-28 14:00:01,15.08869355,0.0001591,53.2168,16.1397,62.0181,332.1542,-0.0024624,-0.00039295,0.0,0 STARLINK-3544,1 51803U 22017AM  22240.58334491 -.00039295  00000-0 -24624-2 0  9996,2 51803  53.2168  16.1397 0001591  62.0181 332.1542 15.08869355  1309,6917.791,95.436,540.756,538.555,0.0
51803.0,STARLINK-3544,PAYLOAD,2022-08-28 22:00:00,15.08842602,0.0001556,53.2168,14.6436,54.9114,350.875,-0.0010947,-0.00017669,0.0,0 STARLINK-3544,1 51803U 22017AM  22240.91667824 -.00017669  00000-0 -10947-2 0  9996,2 51803  53.2168  14.6436 0001556  54.9114 350.8750 15.08842602  1307,6917.871999999999,95.437,540.814,538.661,0.0
51803.0,STARLINK-3544,PAYLOAD,2022-08-29 14:00:01,15.08853456,0.0001533,53.2174,11.6507,57.968,10.9903,-0.002402,-0.00038327,0.0,0 STARLINK-3544,1 51803U 22017AM  22241.58334491 -.00038327  00000-0 -24020-2 0  9992,2 51803  53.2174  11.6507 0001533  57.9680  10.9903 15.08853456  1309,6917.839,95.437,540.765,538.644,0.0
51803.0,STARLINK-3544,PAYLOAD,2022-08-29 22:00:00,15.08835119,0.0001506,53.2174,10.1546,51.474,29.0828,-0.0011145,-0.00017979,0.0,0 STARLINK-3544,1 51803U 22017AM  22241.91667824 -.00017979  00000-0 -11145-2 0  9992,2 51803  53.2174  10.1546 0001506  51.4740  29.0828 15.08835119 29507,6917.895,95.438,540.802,538.7180000000002,0.0
51803.0,STARLINK-3544,PAYLOAD,2022-08-30 14:00:01,15.08840221,0.0001485,53.2178,7.162000000000001,55.0271,48.6837,-0.0011145999999999,-0.00017983,0.0,0 STARLINK-3544,1 51803U 22017AM  22242.58334491 -.00017983  00000-0 -11146-2 0  9993,2 51803  53.2178   7.1620 0001485  55.0271  48.6837 15.08840221  1300,6917.88,95.438,540.7719999999998,538.717,0.0
51803.0,STARLINK-3544,PAYLOAD,2022-08-30 20:00:01,15.08820817,0.0001525,53.2178,6.0402,50.0696,332.3349,0.0025096,0.00039857,0.0,0 STARLINK-3544,1 51803U 22017AM  22242.83334491  .00039857  00000-0  25096-2 0  9992,2 51803  53.2178   6.0402 0001525  50.0696 332.3349 15.08820817 29644,6917.939,95.439,540.859,538.749,0.0
51803.0,STARLINK-3544,PAYLOAD,2022-08-30 22:00:00,15.08847782,0.0001526,53.2177,5.6657,51.0455,64.2484,-0.00077563,-0.00012614,0.0,0 STARLINK-3544,1 51803U 22017AM  22242.91667824 -.00012614  00000-0 -77563-3 0  9991,2 51803  53.2177   5.6657 0001526  51.0455  64.2484 15.08847782  1309,6917.857,95.437,540.7769999999998,538.6659999999998,0.0
51803.0,STARLINK-3544,PAYLOAD,2022-08-31 14:00:01,15.08827059,0.0001583,53.2179,2.6732,56.8726,81.5835,-0.0010111,-0.00016338,0.0,0 STARLINK-3544,1 51803U 22017AM  22243.58334491 -.00016338  00000-0 -10111-2 0  9998,2 51803  53.2179   2.6732 0001583  56.8726  81.5835 15.08827059  1306,6917.92,95.438,540.88,538.69,0.0
51803.0,STARLINK-3544,PAYLOAD,2022-08-31 22:00:00,15.08836881,0.0001574,53.2176,1.1768,53.9488,96.0786,-0.00072759,-0.00011848,0.0,0 STARLINK-3544,1 51803U 22017AM  22243.91667824 -.00011848  00000-0 -72759-3 0  9992,2 51803  53.2176   1.1768 0001574  53.9488  96.0786 15.08836881  1308,6917.89,95.438,540.844,538.6659999999998,0.0
51803.0,STARLINK-3544,PAYLOAD,2022-09-01 12:00:00,15.08853196,0.0001512,53.218,358.5578,58.2647,22.0329,-0.0016903999999999,-0.000271,0.0,0 STARLINK-3544,1 51803U 22017AM  22244.50001157 -.00027100  00000-0 -16904-2 0  9996,2 51803  53.2180 358.5578 0001512  58.2647  22.0329 15.08853196 29892,6917.84,95.437,540.751,538.659,0.0
51803.0,STARLINK-3544,PAYLOAD,2022-09-01 14:00:01,15.08843788,0.000157,53.2179,358.184,55.827,117.4366,-0.00083189,-0.00013505,0.0,0 STARLINK-3544,1 51803U 22017AM  22244.58335648 -.00013505  00000-0 -83189-3 0  9993,2 51803  53.2179 358.1840 0001570  55.8270 117.4366 15.08843788  1309,6917.869000000002,95.437,540.82,538.648,0.0
51803.0,STARLINK-3544,PAYLOAD,2022-09-01 22:00:00,15.08857167,0.0001535,53.2172,356.6878,54.8782,129.9117,-0.0011699,-0.00018867,0.0,0 STARLINK-3544,1 51803U 22017AM  22244.91667824 -.00018867  00000-0 -11699-2 0  9996,2 51803  53.2172 356.6878 0001535  54.8782 129.9117 15.08857167  1302,6917.828,95.436,540.755,538.631,0.0
51803.0,STARLINK-3544,PAYLOAD,2022-09-02 04:00:00,15.088250199999996,0.0001385,53.2172,355.5644,61.3479,42.1543,0.0028658,0.00045598,0.0,0 STARLINK-3544,1 51803U 22017AM  22245.16667824  .00045598  00000-0  28658-2 0  9996,2 51803  53.2172 355.5644 0001385  61.3479  42.1543 15.08825020 29997,6917.926,95.439,540.749,538.8330000000002,0.0
51803.0,STARLINK-3544,PAYLOAD,2022-09-02 14:00:01,15.08860976,0.0001519,53.217,353.6956,56.2893,151.7119,-0.0017457,-0.00027979,0.0,0 STARLINK-3544,1 51803U 22017AM  22245.58334491 -.00027979  00000-0 -17457-2 0  9993,2 51803  53.2170 353.6956 0001519  56.2893 151.7119 15.08860976  1302,6917.816,95.436,540.732,538.63,0.0
51803.0,STARLINK-3544,PAYLOAD,2022-09-02 22:00:01,15.08854976,0.0001426999999999,53.2166,352.1986,53.1805,166.4922,-0.002744,-0.00043712,0.0,0 STARLINK-3544,1 51803U 22017AM  22245.91668981 -.00043712  00000-0 -27440-2 0  9990,2 51803  53.2166 352.1986 0001427  53.1805 166.4922 15.08854976 30109,6917.835,95.437,540.687,538.712,0.0
51803.0,STARLINK-3544,PAYLOAD,2022-09-03 12:00:00,15.08850951,0.0001414,53.2166,349.5801,55.5253,94.3732,-0.0013764,-0.00022133,0.0,0 STARLINK-3544,1 51803U 22017AM  22246.50001157 -.00022133  00000-0 -13764-2 0  9990,2 51803  53.2166 349.5801 0001414  55.5253  94.3732 15.08850951 30190,6917.847,95.437,540.69,538.734,0.0
51803.0,STARLINK-3544,PAYLOAD,2022-09-03 14:00:01,15.08842408,0.0001474,53.2165,349.2064,53.2705,189.5335,0.00025112,3.711e-05,0.0,0 STARLINK-3544,1 51803U 22017AM  22246.58334491  .00003711  00000-0  25112-3 0  9998,2 51803  53.2165 349.2064 0001474  53.2705 189.5335 15.08842408  1305,6917.873000000001,95.437,540.758,538.7180000000002,0.0
51803.0,STARLINK-3544,PAYLOAD,2022-09-03 22:00:00,15.08868814,0.0001433,53.2163,347.7093,51.7234,202.6756,-0.001639,-0.00026298,0.0,0 STARLINK-3544,1 51803U 22017AM  22246.91667824 -.00026298  00000-0 -16390-2 0  9998,2 51803  53.2163 347.7093 0001433  51.7234 202.6756 15.08868814 30252,6917.792,95.436,540.649,538.6659999999998,0.0
51803.0,STARLINK-3544,PAYLOAD,2022-09-04 14:00:01,15.08847713,0.0001588,53.2164,344.717,53.8287,223.8351,-0.0010042999999999,-0.00016239,0.0,0 STARLINK-3544,1 51803U 22017AM  22247.58335648 -.00016239  00000-0 -10043-2 0  9991,2 51803  53.2164 344.7170 0001588  53.8287 223.8351 15.08847713  1303,6917.857,95.437,540.82,538.623,0.0
51803.0,STARLINK-3544,PAYLOAD,2022-09-04 18:00:00,15.0884788,0.0001569,53.2164,343.969,49.1702,54.2438,0.00040668,6.192e-05,0.0,0 STARLINK-3544,1 51803U 22017AM  22247.75001157  .00006192  00000-0  40668-3 0  9997,2 51803  53.2164 343.9690 0001569  49.1702  54.2438 15.08847880 30387,6917.856,95.437,540.807,538.636,0.0
51803.0,STARLINK-3544,PAYLOAD,2022-09-04 20:00:01,15.08861756,0.0001541,53.2163,343.5944,49.2651,147.0475,-0.0016064,-0.00025778,0.0,0 STARLINK-3544,1 51803U 22017AM  22247.83334491 -.00025778  00000-0 -16064-2 0  9991,2 51803  53.2163 343.5944 0001541  49.2651 147.0475 15.08861756  1308,6917.814,95.436,540.745,538.613,0.0
51803.0,STARLINK-3544,PAYLOAD,2022-09-05 14:00:01,15.08875075,0.0001659,53.2168,340.2276,51.7527,260.6918,-0.0029162,-0.00046445,0.0,0 STARLINK-3544,1 51803U 22017AM  22248.58334491 -.00046445  00000-0 -29162-2 0  9991,2 51803  53.2168 340.2276 0001659  51.7527 260.6918 15.08875075  1308,6917.773,95.435,540.786,538.491,0.0
51803.0,STARLINK-3544,PAYLOAD,2022-09-05 22:00:00,15.08861338,0.0001663,53.2169,338.7303,53.0492,271.0116,-0.0053939999999999,-0.0008517,0.0,0 STARLINK-3544,1 51803U 22017AM  22248.91667824 -.00085170  00000-0 -53940-2 0  9996,2 51803  53.2169 338.7303 0001663  53.0492 271.0116 15.08861338 30555,6917.815,95.436,540.831,538.53,0.0
51803.0,STARLINK-3544,PAYLOAD,2022-09-06 12:00:00,15.08812551,0.0001717,53.2172,336.1123,53.2755,201.032,-0.00013028,-2.359e-05,0.0,0 STARLINK-3544,1 51803U 22017AM  22249.50001157 -.00002359  00000-0 -13028-3 0  9995,2 51803  53.2172 336.1123 0001717  53.2755 201.0320 15.08812551 30648,6917.964,95.439,541.0169999999998,538.641,0.0
51803.0,STARLINK-3544,PAYLOAD,2022-09-06 14:00:01,15.08802685,0.0001759,53.2174,335.7385,52.541,294.6578,0.0013519,0.00021271,0.0,0 STARLINK-3544,1 51803U 22017AM  22249.58334491  .00021271  00000-0  13519-2 0  9999,2 51803  53.2174 335.7385 0001759  52.5410 294.6578 15.08802685  1302,6917.994000000002,95.44,541.076,538.643,0.0
51803.0,STARLINK-3544,PAYLOAD,2022-09-06 22:00:00,15.08836588,0.000167,53.2174,334.2412,52.8046,305.9505,-0.0014264,-0.00022915,0.0,0 STARLINK-3544,1 51803U 22017AM  22249.91667824 -.00022915  00000-0 -14264-2 0  9991,2 51803  53.2174 334.2412 0001670  52.8046 305.9505 15.08836588  1302,6917.891,95.438,540.911,538.601,0.0
51803.0,STARLINK-3544,PAYLOAD,2022-09-07 06:00:00,15.08830396,0.0001602,53.2178,332.7443,58.3494,311.9835,0.0016307,0.00025753,0.0,0 STARLINK-3544,1 51803U 22017AM  22250.25001157  .00025753  00000-0  16307-2 0  9992,2 51803  53.2178 332.7443 0001602  58.3494 311.9835 15.08830396 30762,6917.91,95.438,540.883,538.6659999999998,0.0
